HST                     
1 20580U 90037B   20358.51845653  .00000632  00000-0  27383-4 0  9997
2 20580  28.4687 149.0773 0002627 331.8564  79.0427 15.09517248484513
POLAR                   
1 23802U 96013A   20358.38196171  .00000181  00000-0  00000+0 0  9997
2 23802  78.7067 247.4651 6149853 277.0424  21.1822  1.29846272118842
SWAS                    
1 25560U 98071A   20359.47945018  .00000369  00000-0  43034-4 0  9996
2 25560  69.8987 265.5068 0005520  34.3660 325.7852 14.93974336197629
CXO                     
1 25867U 99040B   20362.21202614  .00000488  00000-0  00000+0 0  9990
2 25867  58.9190 261.4811 8050166 226.4728 359.9215  0.37801207 20927
XMM-NEWTON              
1 25989U 99066A   20361.01181027 -.00000184  00000-0  00000+0 0  9998
2 25989  71.0177 316.0931 6838917  91.8129   0.2247  0.50132204 27341
TERRA                   
1 25994U 99068A   20359.18880109  .00000076  00000-0  26841-4 0  9993
2 25994  98.1965  70.6585 0001205  98.6149 314.2309 14.57115162117942
CLUSTER II-FM7 (SAMBA)  
1 26410U 00041A   20361.58702338  .00000531  00000-0  00000+0 0  9994
2 26410 132.3293 343.1323 4638209 188.0677 359.6038  0.44231457 23195
CLUSTER II-FM6 (SALSA)  
1 26411U 00041B   20361.65572046  .00000610  00000-0  00000+0 0  9992
2 26411 132.6702 344.6552 6038542 193.3485 359.5484  0.44223570 22501
CLUSTER II-FM5 (RUMBA)  
1 26463U 00045A   20361.65328220  .00000645  00000-0  00000+0 0  9994
2 26463 136.3107 344.4817 5620539 193.3457 359.5968  0.44223287 23773
CLUSTER II-FM8 (TANGO)  
1 26464U 00045B   20361.58649927  .00000531  00000-0  00000+0 0  9991
2 26464 132.3336 343.1232 4638707 188.0662 359.5881  0.44220113 59111
ODIN                    
1 26702U 01007A   20358.68079402  .00000975  00000-0  66986-4 0  9999
2 26702  97.5460  12.4020 0010490 348.3833  11.7151 15.08236214 85343
TIMED                   
1 26998U 01055B   20358.89890616  .00000205  00000-0  26247-4 0  9992
2 26998  74.0727 276.0498 0002430 279.9279  80.1627 14.88251217 32720
RHESSI                  
1 27370U 02004A   20358.99579402  .00004636  00000-0  14262-3 0  9995
2 27370  38.0327  98.8362 0010702  82.7689 277.4298 15.33782599 43446
INTEGRAL                
1 27540U 02048A   20358.34549034  .00000678  00000-0  00000+0 0  9992
2 27540  59.1893  98.4795 8995639 296.5196   2.0054  0.37574265 19105
CORIOLIS                
1 27640U 03001A   20359.51845611  .00000021  00000-0  31174-4 0  9996
2 27640  98.7247   6.0384 0013674 206.7689 264.9276 14.19056369930370
SORCE                   
1 27651U 03004A   20359.09827732  .00000247  00000-0  39700-4 0  9991
2 27651  39.9970 352.3816 0023341 272.5603  87.2514 14.89207320972502
MOST                    
1 27843U 03031D   20358.73260526  .00000002  00000-0  21094-4 0  9992
2 27843  98.7099   3.2698 0008937 267.6416  92.3737 14.20625073906472
SCISAT 1                
1 27858U 03036A   20359.48545131  .00000122  00000-0  22170-4 0  9993
2 27858  73.9312 169.9212 0008589 325.7738  34.2881 14.77320155935718
SWIFT                   
1 28485U 04047A   20358.74020427  .00001167  00000-0  49226-4 0  9998
2 28485  20.5558 139.6321 0010929 292.1016  67.8258 15.04803351882049
FORMOSAT-3 FM6          
1 29047U 06011A   20358.51614152 -.00000042  00000-0 -22503-6 0  9999
2 29047  71.9792  84.0958 0048162  95.9092 264.7537 14.28770583768323
FORMOSAT-3 FM1          
1 29048U 06011B   20358.74919944  .00000099  00000-0  55084-4 0  9990
2 29048  71.9666 354.3063 0041835  51.7492 308.7397 14.28740684770839
FORMOSAT-3 FM5          
1 29049U 06011C   20358.73991781  .00000124  00000-0  64850-4 0  9999
2 29049  72.0184 167.0506 0033267  78.2203 282.2663 14.28818629766632
FORMOSAT-3 FM3          
1 29050U 06011D   20358.52132683  .00000260  00000-0  64921-4 0  9996
2 29050  72.0161 294.2561 0050549 338.6725  21.2320 14.58994333784009
FORMOSAT-3 FM4          
1 29051U 06011E   20358.66525488  .00000073  00000-0  44314-4 0  9997
2 29051  72.0061  68.8951 0069877 316.4265  43.1364 14.28855498769216
FORMOSAT-3 FM2          
1 29052U 06011F   20358.86133011  .00000125  00000-0  65250-4 0  9997
2 29052  72.0333 143.2641 0039181  35.2681 325.1036 14.28960867767579
CLOUDSAT                
1 29107U 06016A   20358.69666192  .00000141  00000-0  37317-4 0  9996
2 29107  98.2562 305.5275 0001632 110.3511 249.7865 14.62285725780158
CALIPSO                 
1 29108U 06016B   20358.48023582  .00000224  00000-0  53672-4 0  9998
2 29108  98.2543 305.0802 0001181  77.6917 282.4416 14.62482919779948
HINODE (SOLAR-B)        
1 29479U 06041A   20359.49140721  .00000111  00000-0  29703-4 0  9997
2 29479  98.1549   9.7633 0018096 128.2249 232.0586 14.65111689761720
SJ-6C                   
1 29505U 06046A   20359.35122460  .00000899  00000-0  87482-4 0  9998
2 29505  97.8101  12.3572 0006048 112.3104 247.8741 14.95010722771985
SJ-6D                   
1 29506U 06046B   20359.40708572  .00000821  00000-0  83353-4 0  9997
2 29506  97.8305  12.5945 0002018 165.6457 194.4827 14.93564446771520
AGILE                   
1 31135U 07013A   20359.31145658  .00003703  00000-0  77216-4 0  9996
2 31135   2.4665 148.9273 0012080 264.9652  94.9023 15.32921707761229
AIM                     
1 31304U 07015A   20358.95464038  .00001674  00000-0  96173-4 0  9999
2 31304  97.8848 248.5710 0006598  73.5696 286.6259 15.13983094749357
FGRST (GLAST)           
1 33053U 08029A   20358.93171112  .00000708  00000-0  23758-4 0  9990
2 33053  25.5820 249.9692 0012482  41.9547 318.1943 15.11432848692032
WISE                    
1 36119U 09071A   20358.84281694  .00001530  00000-0  54449-4 0  9996
2 36119  97.3070  32.3718 0004215  78.7002 281.4712 15.30481776612789
SDO                     
1 36395U 10005A   20359.36111153 -.00000051  00000-0  00000+0 0  9998
2 36395  30.6532 118.1162 0000338 210.8988 152.5590  1.00270633 39974
CRYOSAT 2               
1 36508U 10013A   20359.47392112  .00000021  00000-0  44984-5 0  9992
2 36508  92.0165 153.6798 0003734 293.5058  66.5757 14.51907311567821
X-SAT                   
1 37389U 11015C   20359.39201921 -.00000041  00000-0  39491-7 0  9993
2 37389  98.4099  46.9412 0015336  94.2594 266.0342 14.24386313503329
GCOM-W1 (SHIZUKU)       
1 38337U 12025A   20358.86582948  .00000087  00000-0  29418-4 0  9995
2 38337  98.2120 296.0836 0002614  86.6576 340.0513 14.57113704457581
NUSTAR                  
1 38358U 12031A   20359.08974265  .00001156  00000-0  47054-4 0  9991
2 38358   6.0278 331.4253 0011216 105.2432 254.8937 14.88417266464303
NEOSSAT                 
1 39089U 13009D   20358.50472931  .00000049  00000-0  32429-4 0  9998
2 39089  98.4504 196.4353 0012422  86.3477 273.9129 14.34537880409658
IRIS                    
1 39197U 13033A   20359.13915285  .00000223  00000-0  37340-4 0  9990
2 39197  97.9589 179.2055 0027154 339.1354  20.8747 14.78794766404133
HISAKI (SPRINT-A)       
1 39253U 13049A   20358.38735692  .00000051  00000-0 -16888-4 0  9992
2 39253  29.7206 314.2135 0136863 352.7978   7.0634 13.55234874359657
CASSIOPE                
1 39265U 13055A   20358.93857875  .00005213  00000-0  14401-3 0  9993
2 39265  80.9666 116.1742 0655205 108.5194 258.8302 14.30920833374864
STSAT-3                 
1 39422U 13066G   20359.37724854  .00000701  00000-0  78114-4 0  9998
2 39422  97.4946  22.4687 0021338 281.8674  78.0144 14.89902150385417
SWARM B                 
1 39451U 13067A   20359.50310519  .00000528  00000-0  21653-4 0  9998
2 39451  87.7553 222.9182 0002318 116.2406 243.9078 15.21878512393434
SWARM A                 
1 39452U 13067B   20358.93859772  .00002109  00000-0  43699-4 0  9995
2 39452  87.3614  61.7154 0003028  76.4299 283.7296 15.45066113398478
SWARM C                 
1 39453U 13067C   20358.87372882  .00002093  00000-0  43356-4 0  9993
2 39453  87.3466  62.3115 0003028  76.3932 283.7663 15.45064697398429
BRITE-CA1 (TORONTO)     
1 40020U 14033L   20359.48224521  .00000142  00000-0  32491-4 0  9994
2 40020  97.7296 176.8470 0087186 185.3603 174.6678 14.66691405348610
OCO 2                   
1 40059U 14035A   20359.46804130  .00000066  00000-0  24669-4 0  9999
2 40059  98.2115 297.4031 0001447  76.3016 283.8343 14.57111922344703
BRITE-PL2 (HEWELIUSZ)   
1 40119U 14049B   20359.52908551  .00000229  00000-0  33511-4 0  9997
2 40119  97.8930  89.8622 0016848 203.6517 156.3924 14.84578974343983
RESURS P2               
1 40360U 14087A   20359.49906341  .00001218  00000-0  39481-4 0  9999
2 40360  97.2389  84.5716 0007854 216.1475 200.0860 15.33882436335442
MMS 1                   
1 40482U 15011A   20359.39583333 -.00000873  00000-0  00000+0 0  9990
2 40482  31.9429 119.0416 8479313  26.9498 187.7417  0.28570862 11750
MMS 2                   
1 40483U 15011B   20359.39583333 -.00000873  00000-0  00000+0 0  9991
2 40483  31.9421 119.0520 8478594  26.9368 187.7615  0.28570892 11736
MMS 3                   
1 40484U 15011C   20359.39583333 -.00000874  00000-0  00000+0 0  9993
2 40484  31.9509 119.0403 8480379  26.9346 187.7683  0.28571045 11730
MMS 4                   
1 40485U 15011D   20359.39583333 -.00000873  00000-0  00000+0 0  9993
2 40485  31.9433 119.0523 8479943  26.9371 187.7469  0.28570861 11730
ASTROSAT                
1 40930U 15052A   20359.26639820  .00000769  00000-0  18993-4 0  9990
2 40930   5.9975  69.3244 0008004  72.6106 287.4897 14.76359103283293
DAMPE                   
1 41173U 15078A   20359.47499935  .00000196  00000-0  11003-4 0  9991
2 41173  97.3376 349.2333 0012424 307.3376 204.0644 15.23940803279331
PISAT                   
1 41784U 16059B   20359.15216510  .00000150  00000-0  37708-4 0  9990
2 41784  97.9943  50.2376 0033226  76.3083 284.1816 14.63571433226651
HXMT (HUIYAN)           
1 42758U 17034A   20359.49998858  .00000350  00000-0  35399-4 0  9991
2 42758  43.0180  73.3075 0008676 147.6370 233.5380 15.09007491194581
FLYING LAPTOP           
1 42831U 17042G   20359.36582663  .00000424  00000-0  47876-4 0  9996
2 42831  97.4935 232.0931 0014680  18.2893 341.8818 14.91213517187594
PICSAT                  
1 43132U 18004X   20359.44420236  .00003160  00000-0  12900-3 0  9995
2 43132  97.4297  69.4805 0010917 103.7260 256.5193 15.25093325164009
ZHANGZHENG-1 (CSES)     
1 43194U 18015C   20359.57868231  .00001935  00000-0  90346-4 0  9999
2 43194  97.4577 122.4797 0013587 156.3218 259.9974 15.20954065160564
ICON                    
1 44628U 19068A   20359.08714374  .00000645  00000-0  42591-4 0  9991
2 44628  26.9890 236.2787 0018849 230.0596 129.8306 14.91817602 65762
SALSAT                  
1 46495U 20068K   20358.61395282  .00000438  00000-0  36811-4 0  9996
2 46495  97.6797 291.3377 0015406 312.2458  47.7461 15.03307213 12915
